<?xml version="1.0" encoding="UTF-8"?>
<ndm xmlns:xsi="http://www.w3.org/2001/XMLSchema-instance" xsi:noNamespaceSchemaLocation="https://sanaregistry.org/r/ndmxml_unqualified/ndmxml-2.0.0-master-2.0.xsd">
<omm id="CCSDS_OMM_VERS" version="2.0">
<header><CREATION_DATE/><ORIGINATOR/></header><body><segment><metadata><OBJECT_NAME>ONEWEB-0349</OBJECT_NAME><OBJECT_ID>2021-090C</OBJECT_ID><CENTER_NAME>EARTH</CENTER_NAME><REF_FRAME>TEME</REF_FRAME><TIME_SYSTEM>UTC</TIME_SYSTEM><MEAN_ELEMENT_THEORY>SGP4</MEAN_ELEMENT_THEORY></metadata><data><meanElements><EPOCH>2025-09-06T17:54:00.656352</EPOCH><MEAN_MOTION>13.20770117</MEAN_MOTION><ECCENTRICITY>.00017952</ECCENTRICITY><INCLINATION>87.9281</INCLINATION><RA_OF_ASC_NODE>330.9484</RA_OF_ASC_NODE><ARG_OF_PERICENTER>100.9822</ARG_OF_PERICENTER><MEAN_ANOMALY>259.1513</MEAN_ANOMALY></meanElements><tleParameters><EPHEMERIS_TYPE>0</EPHEMERIS_TYPE><CLASSIFICATION_TYPE>U</CLASSIFICATION_TYPE><NORAD_CAT_ID>49281</NORAD_CAT_ID><ELEMENT_SET_NO>999</ELEMENT_SET_NO><REV_AT_EPOCH>19241</REV_AT_EPOCH><BSTAR>.13245571E-3</BSTAR><MEAN_MOTION_DOT>.67E-6</MEAN_MOTION_DOT><MEAN_MOTION_DDOT>0</MEAN_MOTION_DDOT></tleParameters></data></segment></body></omm>
<omm id="CCSDS_OMM_VERS" version="2.0">
<header><CREATION_DATE/><ORIGINATOR/></header><body><segment><metadata><OBJECT_NAME>ONEWEB-0353</OBJECT_NAME><OBJECT_ID>2021-090D</OBJECT_ID><CENTER_NAME>EARTH</CENTER_NAME><REF_FRAME>TEME</REF_FRAME><TIME_SYSTEM>UTC</TIME_SYSTEM><MEAN_ELEMENT_THEORY>SGP4</MEAN_ELEMENT_THEORY></metadata><data><meanElements><EPOCH>2025-09-06T19:46:50.510208</EPOCH><MEAN_MOTION>13.14503660</MEAN_MOTION><ECCENTRICITY>.00016578</ECCENTRICITY><INCLINATION>87.9085</INCLINATION><RA_OF_ASC_NODE>346.1191</RA_OF_ASC_NODE><ARG_OF_PERICENTER>92.5099</ARG_OF_PERICENTER><MEAN_ANOMALY>267.6221</MEAN_ANOMALY></meanElements><tleParameters><EPHEMERIS_TYPE>0</EPHEMERIS_TYPE><CLASSIFICATION_TYPE>U</CLASSIFICATION_TYPE><NORAD_CAT_ID>49282</NORAD_CAT_ID><ELEMENT_SET_NO>999</ELEMENT_SET_NO><REV_AT_EPOCH>19035</REV_AT_EPOCH><BSTAR>-.51050614E-4</BSTAR><MEAN_MOTION_DOT>-.6E-7</MEAN_MOTION_DOT><MEAN_MOTION_DDOT>0</MEAN_MOTION_DDOT></tleParameters></data></segment></body></omm>
<omm id="CCSDS_OMM_VERS" version="2.0">
<header><CREATION_DATE/><ORIGINATOR/></header><body><segment><metadata><OBJECT_NAME>ONEWEB-0356</OBJECT_NAME><OBJECT_ID>2021-090E</OBJECT_ID><CENTER_NAME>EARTH</CENTER_NAME><REF_FRAME>TEME</REF_FRAME><TIME_SYSTEM>UTC</TIME_SYSTEM><MEAN_ELEMENT_THEORY>SGP4</MEAN_ELEMENT_THEORY></metadata><data><meanElements><EPOCH>2025-09-06T17:51:44.602272</EPOCH><MEAN_MOTION>13.20770043</MEAN_MOTION><ECCENTRICITY>.00026469</ECCENTRICITY><INCLINATION>87.9283</INCLINATION><RA_OF_ASC_NODE>330.9404</RA_OF_ASC_NODE><ARG_OF_PERICENTER>87.7551</ARG_OF_PERICENTER><MEAN_ANOMALY>272.3886</MEAN_ANOMALY></meanElements><tleParameters><EPHEMERIS_TYPE>0</EPHEMERIS_TYPE><CLASSIFICATION_TYPE>U</CLASSIFICATION_TYPE><NORAD_CAT_ID>49283</NORAD_CAT_ID><ELEMENT_SET_NO>999</ELEMENT_SET_NO><REV_AT_EPOCH>19241</REV_AT_EPOCH><BSTAR>-.86815E-5</BSTAR><MEAN_MOTION_DOT>.9E-7</MEAN_MOTION_DOT><MEAN_MOTION_DDOT>0</MEAN_MOTION_DDOT></tleParameters></data></segment></body></omm>
<omm id="CCSDS_OMM_VERS" version="2.0">
<header><CREATION_DATE/><ORIGINATOR/></header><body><segment><metadata><OBJECT_NAME>ONEWEB-0358</OBJECT_NAME><OBJECT_ID>2021-090F</OBJECT_ID><CENTER_NAME>EARTH</CENTER_NAME><REF_FRAME>TEME</REF_FRAME><TIME_SYSTEM>UTC</TIME_SYSTEM><MEAN_ELEMENT_THEORY>SGP4</MEAN_ELEMENT_THEORY></metadata><data><meanElements><EPOCH>2025-09-06T22:13:06.303360</EPOCH><MEAN_MOTION>13.20770913</MEAN_MOTION><ECCENTRICITY>.0002023</ECCENTRICITY><INCLINATION>87.9291</INCLINATION><RA_OF_ASC_NODE>330.8969</RA_OF_ASC_NODE><ARG_OF_PERICENTER>100.2089</ARG_OF_PERICENTER><MEAN_ANOMALY>259.9272</MEAN_ANOMALY></meanElements><tleParameters><EPHEMERIS_TYPE>0</EPHEMERIS_TYPE><CLASSIFICATION_TYPE>U</CLASSIFICATION_TYPE><NORAD_CAT_ID>49284</NORAD_CAT_ID><ELEMENT_SET_NO>999</ELEMENT_SET_NO><REV_AT_EPOCH>19316</REV_AT_EPOCH><BSTAR>.13183502E-3</BSTAR><MEAN_MOTION_DOT>.67E-6</MEAN_MOTION_DOT><MEAN_MOTION_DDOT>0</MEAN_MOTION_DDOT></tleParameters></data></segment></body></omm>
<omm id="CCSDS_OMM_VERS" version="2.0">
<header><CREATION_DATE/><ORIGINATOR/></header><body><segment><metadata><OBJECT_NAME>ONEWEB-0359</OBJECT_NAME><OBJECT_ID>2021-090G</OBJECT_ID><CENTER_NAME>EARTH</CENTER_NAME><REF_FRAME>TEME</REF_FRAME><TIME_SYSTEM>UTC</TIME_SYSTEM><MEAN_ELEMENT_THEORY>SGP4</MEAN_ELEMENT_THEORY></metadata><data><meanElements><EPOCH>2025-09-06T22:08:33.032256</EPOCH><MEAN_MOTION>13.20774009</MEAN_MOTION><ECCENTRICITY>.00021702</ECCENTRICITY><INCLINATION>87.9279</INCLINATION><RA_OF_ASC_NODE>330.9055</RA_OF_ASC_NODE><ARG_OF_PERICENTER>107.6612</ARG_OF_PERICENTER><MEAN_ANOMALY>252.4759</MEAN_ANOMALY></meanElements><tleParameters><EPHEMERIS_TYPE>0</EPHEMERIS_TYPE><CLASSIFICATION_TYPE>U</CLASSIFICATION_TYPE><NORAD_CAT_ID>49285</NORAD_CAT_ID><ELEMENT_SET_NO>999</ELEMENT_SET_NO><REV_AT_EPOCH>19314</REV_AT_EPOCH><BSTAR>-.2129115E-5</BSTAR><MEAN_MOTION_DOT>.12E-6</MEAN_MOTION_DOT><MEAN_MOTION_DDOT>0</MEAN_MOTION_DDOT></tleParameters></data></segment></body></omm>
<omm id="CCSDS_OMM_VERS" version="2.0">
<header><CREATION_DATE/><ORIGINATOR/></header><body><segment><metadata><OBJECT_NAME>ONEWEB-0360</OBJECT_NAME><OBJECT_ID>2021-090H</OBJECT_ID><CENTER_NAME>EARTH</CENTER_NAME><REF_FRAME>TEME</REF_FRAME><TIME_SYSTEM>UTC</TIME_SYSTEM><MEAN_ELEMENT_THEORY>SGP4</MEAN_ELEMENT_THEORY></metadata><data><meanElements><EPOCH>2025-09-06T18:16:45.715872</EPOCH><MEAN_MOTION>13.20772375</MEAN_MOTION><ECCENTRICITY>.00019288</ECCENTRICITY><INCLINATION>87.9281</INCLINATION><RA_OF_ASC_NODE>330.9462</RA_OF_ASC_NODE><ARG_OF_PERICENTER>104.2477</ARG_OF_PERICENTER><MEAN_ANOMALY>255.8871</MEAN_ANOMALY></meanElements><tleParameters><EPHEMERIS_TYPE>0</EPHEMERIS_TYPE><CLASSIFICATION_TYPE>U</CLASSIFICATION_TYPE><NORAD_CAT_ID>49286</NORAD_CAT_ID><ELEMENT_SET_NO>999</ELEMENT_SET_NO><REV_AT_EPOCH>19243</REV_AT_EPOCH><BSTAR>.10154337E-3</BSTAR><MEAN_MOTION_DOT>.54E-6</MEAN_MOTION_DOT><MEAN_MOTION_DDOT>0</MEAN_MOTION_DDOT></tleParameters></data></segment></body></omm>
<omm id="CCSDS_OMM_VERS" version="2.0">
<header><CREATION_DATE/><ORIGINATOR/></header><body><segment><metadata><OBJECT_NAME>ONEWEB-0361</OBJECT_NAME><OBJECT_ID>2021-090J</OBJECT_ID><CENTER_NAME>EARTH</CENTER_NAME><REF_FRAME>TEME</REF_FRAME><TIME_SYSTEM>UTC</TIME_SYSTEM><MEAN_ELEMENT_THEORY>SGP4</MEAN_ELEMENT_THEORY></metadata><data><meanElements><EPOCH>2025-09-06T17:49:27.687648</EPOCH><MEAN_MOTION>13.20777785</MEAN_MOTION><ECCENTRICITY>.00025749</ECCENTRICITY><INCLINATION>87.9286</INCLINATION><RA_OF_ASC_NODE>330.9459</RA_OF_ASC_NODE><ARG_OF_PERICENTER>97.7028</ARG_OF_PERICENTER><MEAN_ANOMALY>262.4398</MEAN_ANOMALY></meanElements><tleParameters><EPHEMERIS_TYPE>0</EPHEMERIS_TYPE><CLASSIFICATION_TYPE>U</CLASSIFICATION_TYPE><NORAD_CAT_ID>49287</NORAD_CAT_ID><ELEMENT_SET_NO>999</ELEMENT_SET_NO><REV_AT_EPOCH>19288</REV_AT_EPOCH><BSTAR>-.18568429E-2</BSTAR><MEAN_MOTION_DOT>-.742E-5</MEAN_MOTION_DOT><MEAN_MOTION_DDOT>0</MEAN_MOTION_DDOT></tleParameters></data></segment></body></omm>
<omm id="CCSDS_OMM_VERS" version="2.0">
<header><CREATION_DATE/><ORIGINATOR/></header><body><segment><metadata><OBJECT_NAME>ONEWEB-0362</OBJECT_NAME><OBJECT_ID>2021-090K</OBJECT_ID><CENTER_NAME>EARTH</CENTER_NAME><REF_FRAME>TEME</REF_FRAME><TIME_SYSTEM>UTC</TIME_SYSTEM><MEAN_ELEMENT_THEORY>SGP4</MEAN_ELEMENT_THEORY></metadata><data><meanElements><EPOCH>2025-09-06T20:23:48.585696</EPOCH><MEAN_MOTION>13.19717818</MEAN_MOTION><ECCENTRICITY>.0001611</ECCENTRICITY><INCLINATION>87.9280</INCLINATION><RA_OF_ASC_NODE>1.3263</RA_OF_ASC_NODE><ARG_OF_PERICENTER>104.7191</ARG_OF_PERICENTER><MEAN_ANOMALY>255.4120</MEAN_ANOMALY></meanElements><tleParameters><EPHEMERIS_TYPE>0</EPHEMERIS_TYPE><CLASSIFICATION_TYPE>U</CLASSIFICATION_TYPE><NORAD_CAT_ID>49288</NORAD_CAT_ID><ELEMENT_SET_NO>999</ELEMENT_SET_NO><REV_AT_EPOCH>18954</REV_AT_EPOCH><BSTAR>-.20260218E-2</BSTAR><MEAN_MOTION_DOT>-.798E-5</MEAN_MOTION_DOT><MEAN_MOTION_DDOT>0</MEAN_MOTION_DDOT></tleParameters></data></segment></body></omm>

</ndm>
