ONEWEB-0349             
1 49281U 21090C   25249.74584093  .00000067  00000+0  13246-3 0  9999
2 49281  87.9281 330.9484 0001795 100.9822 259.1513 13.20770117192418
ONEWEB-0353             
1 49282U 21090D   25249.82419572 -.00000006  00000+0 -51051-4 0  9990
2 49282  87.9085 346.1191 0001657  92.5099 267.6221 13.14503660190355
ONEWEB-0356             
1 49283U 21090E   25249.74426623  .00000009  00000+0 -86815-5 0  9996
2 49283  87.9283 330.9404 0002646  87.7551 272.3886 13.20770043192419
ONEWEB-0358             
1 49284U 21090F   25249.92576740  .00000067  00000+0  13184-3 0  9993
2 49284  87.9291 330.8969 0002023 100.2089 259.9272 13.20770913193169
ONEWEB-0359             
1 49285U 21090G   25249.92260454  .00000012  00000+0 -21291-5 0  9997
2 49285  87.9279 330.9055 0002170 107.6612 252.4759 13.20774009193145
ONEWEB-0360             
1 49286U 21090H   25249.76164023  .00000054  00000+0  10154-3 0  9994
2 49286  87.9281 330.9462 0001928 104.2477 255.8871 13.20772375192430
ONEWEB-0361             
1 49287U 21090J   25249.74268157 -.00000742  00000+0 -18568-2 0  9998
2 49287  87.9286 330.9459 0002574  97.7028 262.4398 13.20777785192885
ONEWEB-0362             
1 49288U 21090K   25249.84986789 -.00000798  00000+0 -20260-2 0  9991
2 49288  87.9280   1.3263 0001611 104.7191 255.4120 13.19717818189546
